STARLINK-36862          
1 68003U 26039T   26064.91668981 -.01428173  61535-3 -30276-2 0  9994
2 68003  42.9980  78.2271 0001812 265.6178 158.0550 15.97904750  2277
STARLINK-36888          
1 68004U 26039U   26064.91668981 -.01435641  61870-3 -31119-2 0  9992
2 68004  42.9981  78.2412 0001796 265.2752 153.0423 15.97506511  2278
STARLINK-36910          
1 68005U 26039V   26064.91668981 -.01432717  61816-3 -30582-2 0  9997
2 68005  42.9980  78.2313 0001830 267.3516 154.7165 15.97782140  2273
STARLINK-36889          
1 68006U 26039W   26064.91668981 -.01420053  60975-3 -29890-2 0  9993
2 68006  42.9980  78.2225 0001770 269.9344 155.4393 15.98030859  2271
STARLINK-36592          
1 68007U 26039X   26064.91668981 -.01422208  61229-3 -29717-2 0  9999
2 68007  42.9979  78.2188 0001808 265.3509 161.7085 15.98162085  2278
STARLINK-36911          
1 68008U 26039Y   26064.91668981 -.01417287  60924-3 -29397-2 0  9996
2 68008  42.9979  78.2141 0001910 263.6343 165.2268 15.98291825  2276
STARLINK-36956          
1 68009U 26039Z   26064.91668981 -.01410434  60466-3 -29045-2 0  9995
2 68009  42.9978  78.2096 0001658 269.0627 161.4995 15.98419799  2276
STARLINK-36953          
1 68010U 26039AA  26064.91668981 -.01413237  60863-3 -28655-2 0  9998
2 68010  42.9977  78.2000 0001812 265.2275 169.0796 15.98694736  2270
STARLINK-36991          
1 68011U 26039AB  26064.91668981 -.01406496  60414-3 -28308-2 0  9995
2 68011  42.9977  78.1954 0001822 266.9174 169.2244 15.98825002  2277
STARLINK-36936          
1 68012U 26039AC  26064.91668981 -.01417637  61473-3 -28097-2 0  9996
2 68012  42.9978  78.1859 0001882 267.8400 171.8856 15.99097871  2275
STARLINK-36967          
1 68013U 26039AD  26064.91668981 -.01410585  60563-3 -28829-2 0  9994
2 68013  42.9976  78.2046 0001788 266.2381 166.1323 15.98554150  2272
STARLINK-36985          
1 68014U 26039AE  26064.91668981 -.01416101  61260-3 -28288-2 0  9999
2 68014  42.9978  78.1909 0001791 271.1833 166.6870 15.98959158  2272
